{"type": "FeatureCollection", "features": [ {"type": "Feature", "properties": {"norad_id": 31899, "name": "FENGYUN 1C DEB", "group": "fengyun-1c-debris", "lat": -30.480062506035704, "lon": 53.357018672847886, "alt_km": 1086.8385583537456, "timestamp": "2025-12-09T23:33:24.139761+00:00", "meta": {"OBJECT_NAME": "FENGYUN 1C DEB", "OBJECT_ID": "1999-025CLA", "EPOCH": "2025-12-07T00:33:12.035808", "MEAN_MOTION": 13.83487543, "ECCENTRICITY": 0.01833749, "INCLINATION": 102.0834, "RA_OF_ASC_NODE": 42.3236, "ARG_OF_PERICENTER": 171.0464, "MEAN_ANOMALY": 189.4024, "EPHEMERIS_TYPE": 0, "CLASSIFICATION_TYPE": "U", "NORAD_CAT_ID": 31899, "ELEMENT_SET_NO": 999, "REV_AT_EPOCH": 67485, "BSTAR": 0.0022774181, "MEAN_MOTION_DOT": 2.792e-05, "MEAN_MOTION_DDOT": 0}, "tle": {"line1": "1 31899U 99025CLA 25341.02305597  .00002792  00000+0  22774-2 0  9994", "line2": "2 31899 102.0834  42.3236 0183374 171.0464 189.4024 13.83487543674853"}}, "geometry": {"type": "Point", "coordinates": [53.357018672847886, -30.480062506035704]}}, {"type": "Feature", "properties": {"norad_id": 31901, "name": "FENGYUN 1C DEB", "group": "fengyun-1c-debris", "lat": -30.793613438112565, "lon": -49.49125582586971, "alt_km": 983.0679291124434, "timestamp": "2025-12-09T23:33:24.139773+00:00", "meta": {"OBJECT_NAME": "FENGYUN 1C DEB", "OBJECT_ID": "1999-025CLC", "EPOCH": "2025-12-09T15:05:48.871968", "MEAN_MOTION": 13.94141446, "ECCENTRICITY": 0.01309968, "INCLINATION": 98.5984, "RA_OF_ASC_NODE": 305.0071, "ARG_OF_PERICENTER": 198.0887, "MEAN_ANOMALY": 161.5592, "EPHEMERIS_TYPE": 0, "CLASSIFICATION_TYPE": "U", "NORAD_CAT_ID": 31901, "ELEMENT_SET_NO": 999, "REV_AT_EPOCH": 63364, "BSTAR": 0.00026478899, "MEAN_MOTION_DOT": 3.37e-06, "MEAN_MOTION_DDOT": 0}, "tle": {"line1": "1 31901U 99025CLC 25343.62903787  .00000337  00000+0  26479-3 0  9991", "line2": "2 31901  98.5984 305.0071 0130996 198.0887 161.5592 13.94141446633642"}}, "geometry": {"type": "Point", "coordinates": [-49.49125582586971, -30.793613438112565]}}, {"type": "Feature", "properties": {"norad_id": 31902, "name": "FENGYUN 1C DEB", "group": "fengyun-1c-debris", "lat": 65.49100555087784, "lon": -55.21564087237158, "alt_km": 806.0011724427413, "timestamp": "2025-12-09T23:33:24.139786+00:00", "meta": {"OBJECT_NAME": "FENGYUN 1C DEB", "OBJECT_ID": "1999-025CLD", "EPOCH": "2025-12-09T10:27:18.851904", "MEAN_MOTION": 14.23273137, "ECCENTRICITY": 0.01806222, "INCLINATION": 98.507, "RA_OF_ASC_NODE": 323.4213, "ARG_OF_PERICENTER": 158.7653, "MEAN_ANOMALY": 354.8218, "EPHEMERIS_TYPE": 0, "CLASSIFICATION_TYPE": "U", "NORAD_CAT_ID": 31902, "ELEMENT_SET_NO": 999, "REV_AT_EPOCH": 64744, "BSTAR": 0.00033091501, "MEAN_MOTION_DOT": 8.43e-06, "MEAN_MOTION_DDOT": 0}, "tle": {"line1": "1 31902U 99025CLD 25343.43563486  .00000843  00000+0  33092-3 0  9990", "line2": "2 31902  98.5070 323.4213 0180622 158.7653 354.8218 14.23273137647447"}}, "geometry": {"type": "Point", "coordinates": [-55.21564087237158, 65.49100555087784]}}, {"type": "Feature", "properties": {"norad_id": 31903, "name": "FENGYUN 1C DEB", "group": "fengyun-1c-debris", "lat": -80.51663395949346, "lon": 74.05785852276277, "alt_km": 764.865879496574, "timestamp": "2025-12-09T23:33:24.139796+00:00", "meta": {"OBJECT_NAME": "FENGYUN 1C DEB", "OBJECT_ID": "1999-025CLE", "EPOCH": "2025-12-08T05:13:34.820832", "MEAN_MOTION": 14.60433074, "ECCENTRICITY": 0.01302705, "INCLINATION": 99.2743, "RA_OF_ASC_NODE": 330.1014, "ARG_OF_PERICENTER": 49.5229, "MEAN_ANOMALY": 311.7237, "EPHEMERIS_TYPE": 0, "CLASSIFICATION_TYPE": "U", "NORAD_CAT_ID": 31903, "ELEMENT_SET_NO": 999, "REV_AT_EPOCH": 97329, "BSTAR": 0.0010287101, "MEAN_MOTION_DOT": 5.556e-05, "MEAN_MOTION_DDOT": 0}, "tle": {"line1": "1 31903U 99025CLE 25342.21776413  .00005556  00000+0  10287-2 0  9998", "line2": "2 31903  99.2743 330.1014 0130270  49.5229 311.7237 14.60433074973294"}}, "geometry": {"type": "Point", "coordinates": [74.05785852276277, -80.51663395949346]}}, {"type": "Feature", "properties": {"norad_id": 31905, "name": "FENGYUN 1C DEB", "group": "fengyun-1c-debris", "lat": -78.71811901924478, "lon": 13.967032885740824, "alt_km": 929.0567787295176, "timestamp": "2025-12-09T23:33:24.139806+00:00", "meta": {"OBJECT_NAME": "FENGYUN 1C DEB", "OBJECT_ID": "1999-025CLG", "EPOCH": "2025-12-08T09:24:58.830912", "MEAN_MOTION": 14.33079386, "ECCENTRICITY": 0.01968405, "INCLINATION": 99.1505, "RA_OF_ASC_NODE": 318.3901, "ARG_OF_PERICENTER": 106.5348, "MEAN_ANOMALY": 255.7558, "EPHEMERIS_TYPE": 0, "CLASSIFICATION_TYPE": "U", "NORAD_CAT_ID": 31905, "ELEMENT_SET_NO": 999, "REV_AT_EPOCH": 96562, "BSTAR": 0.00082376124, "MEAN_MOTION_DOT": 2.75e-05, "MEAN_MOTION_DDOT": 0}, "tle": {"line1": "1 31905U 99025CLG 25342.39234758  .00002750  00000+0  82376-3 0  9992", "line2": "2 31905  99.1505 318.3901 0196840 106.5348 255.7558 14.33079386965628"}}, "geometry": {"type": "Point", "coordinates": [13.967032885740824, -78.71811901924478]}}, {"type": "Feature", "properties": {"norad_id": 31906, "name": "FENGYUN 1C DEB", "group": "fengyun-1c-debris", "lat": -10.845501017804573, "lon": 118.8062374419996, "alt_km": 844.1842399271072, "timestamp": "2025-12-09T23:33:24.139816+00:00", "meta": {"OBJECT_NAME": "FENGYUN 1C DEB", "OBJECT_ID": "1999-025CLH", "EPOCH": "2025-12-09T15:16:36.795072", "MEAN_MOTION": 14.24585672, "ECCENTRICITY": 0.0052549, "INCLINATION": 98.6929, "RA_OF_ASC_NODE": 116.7852, "ARG_OF_PERICENTER": 133.1432, "MEAN_ANOMALY": 248.0663, "EPHEMERIS_TYPE": 0, "CLASSIFICATION_TYPE": "U", "NORAD_CAT_ID": 31906, "ELEMENT_SET_NO": 999, "REV_AT_EPOCH": 95085, "BSTAR": 0.0037475932, "MEAN_MOTION_DOT": 8.794e-05, "MEAN_MOTION_DDOT": 0}, "tle": {"line1": "1 31906U 99025CLH 25343.63653698  .00008794  00000+0  37476-2 0  9993", "line2": "2 31906  98.6929 116.7852 0052549 133.1432 248.0663 14.24585672950856"}}, "geometry": {"type": "Point", "coordinates": [118.8062374419996, -10.845501017804573]}}, {"type": "Feature", "properties": {"norad_id": 31910, "name": "FENGYUN 1C DEB", "group": "fengyun-1c-debris", "lat": -10.701378559949728, "lon": 6.917237235927634, "alt_km": 899.0520842925753, "timestamp": "2025-12-09T23:33:24.139826+00:00", "meta": {"OBJECT_NAME": "FENGYUN 1C DEB", "OBJECT_ID": "1999-025CLM", "EPOCH": "2025-12-08T19:24:24.710976", "MEAN_MOTION": 14.47606562, "ECCENTRICITY": 0.02278782, "INCLINATION": 97.6669, "RA_OF_ASC_NODE": 4.3939, "ARG_OF_PERICENTER": 167.6728, "MEAN_ANOMALY": 193.0175, "EPHEMERIS_TYPE": 0, "CLASSIFICATION_TYPE": "U", "NORAD_CAT_ID": 31910, "ELEMENT_SET_NO": 999, "REV_AT_EPOCH": 64312, "BSTAR": 0.00112976, "MEAN_MOTION_DOT": 5.731e-05, "MEAN_MOTION_DDOT": 0}, "tle": {"line1": "1 31910U 99025CLM 25342.80861934  .00005731  00000+0  11298-2 0  9992", "line2": "2 31910  97.6669   4.3939 0227878 167.6728 193.0175 14.47606562643121"}}, "geometry": {"type": "Point", "coordinates": [6.917237235927634, -10.701378559949728]}}, {"type": "Feature", "properties": {"norad_id": 31913, "name": "FENGYUN 1C DEB", "group": "fengyun-1c-debris", "lat": -33.14960676704526, "lon": -88.90204197752156, "alt_km": 779.9719935446701, "timestamp": "2025-12-09T23:33:24.139836+00:00", "meta": {"OBJECT_NAME": "FENGYUN 1C DEB", "OBJECT_ID": "1999-025CLQ", "EPOCH": "2025-12-08T01:06:13.929120", "MEAN_MOTION": 13.91009259, "ECCENTRICITY": 0.02081952, "INCLINATION": 99.2947, "RA_OF_ASC_NODE": 263.0201, "ARG_OF_PERICENTER": 324.8669, "MEAN_ANOMALY": 33.8906, "EPHEMERIS_TYPE": 0, "CLASSIFICATION_TYPE": "U", "NORAD_CAT_ID": 31913, "ELEMENT_SET_NO": 999, "REV_AT_EPOCH": 55821, "BSTAR": 0.0095286258, "MEAN_MOTION_DOT": 0.00014234, "MEAN_MOTION_DDOT": 0}, "tle": {"line1": "1 31913U 99025CLQ 25342.04599455  .00014234  00000+0  95286-2 0  9994", "line2": "2 31913  99.2947 263.0201 0208195 324.8669  33.8906 13.91009259558215"}}, "geometry": {"type": "Point", "coordinates": [-88.90204197752156, -33.14960676704526]}}, {"type": "Feature", "properties": {"norad_id": 31914, "name": "FENGYUN 1C DEB", "group": "fengyun-1c-debris", "lat": -26.24762539799711, "lon": 22.29455209377484, "alt_km": 792.9709116826834, "timestamp": "2025-12-09T23:33:24.139847+00:00", "meta": {"OBJECT_NAME": "FENGYUN 1C DEB", "OBJECT_ID": "1999-025CLR", "EPOCH": "2025-12-08T08:41:10.969728", "MEAN_MOTION": 14.55700923, "ECCENTRICITY": 0.01832145, "INCLINATION": 99.0278, "RA_OF_ASC_NODE": 205.0398, "ARG_OF_PERICENTER": 82.3958, "MEAN_ANOMALY": 279.8005, "EPHEMERIS_TYPE": 0, "CLASSIFICATION_TYPE": "U", "NORAD_CAT_ID": 31914, "ELEMENT_SET_NO": 999, "REV_AT_EPOCH": 68409, "BSTAR": 0.0002711521, "MEAN_MOTION_DOT": 1.424e-05, "MEAN_MOTION_DDOT": 0}, "tle": {"line1": "1 31914U 99025CLR 25342.36193252  .00001424  00000+0  27115-3 0  9999", "line2": "2 31914  99.0278 205.0398 0183214  82.3958 279.8005 14.55700923684090"}}, "geometry": {"type": "Point", "coordinates": [22.29455209377484, -26.24762539799711]}}, {"type": "Feature", "properties": {"norad_id": 31915, "name": "FENGYUN 1C DEB", "group": "fengyun-1c-debris", "lat": 81.0581419449407, "lon": -72.96868211964917, "alt_km": 902.4169958819421, "timestamp": "2025-12-09T23:33:24.139857+00:00", "meta": {"OBJECT_NAME": "FENGYUN 1C DEB", "OBJECT_ID": "1999-025CLS", "EPOCH": "2025-12-08T18:18:50.869728", "MEAN_MOTION": 14.16191154, "ECCENTRICITY": 0.01009224, "INCLINATION": 98.6308, "RA_OF_ASC_NODE": 0.7089, "ARG_OF_PERICENTER": 281.5001, "MEAN_ANOMALY": 77.4855, "EPHEMERIS_TYPE": 0, "CLASSIFICATION_TYPE": "U", "NORAD_CAT_ID": 31915, "ELEMENT_SET_NO": 999, "REV_AT_EPOCH": 64051, "BSTAR": 0.0016282406, "MEAN_MOTION_DOT": 3.344e-05, "MEAN_MOTION_DDOT": 0}, "tle": {"line1": "1 31915U 99025CLS 25342.76308877  .00003344  00000+0  16282-2 0  9990", "line2": "2 31915  98.6308   0.7089 0100922 281.5001  77.4855 14.16191154640515"}}, "geometry": {"type": "Point", "coordinates": [-72.96868211964917, 81.0581419449407]}}]}